#dP2021  2  3  0  0  0.00000000      96 __u+U ITR00 FIT  IAC
## 2143 259200.00000000   900.00000000 59248 0.0000000000000
+  126   C01C02C03C04C05C06C07C08C09C10C11C12C13C14C16C19C20
+        C21C22C23C24C25C26C27C28C29C30C32C33C34C35C36C37C38
+        C39C40C41C42C43C44C45C46C60E01E02E03E04E05E07E08E09
+        E11E12E13E14E15E18E19E21E24E25E26E27E30E31E33E36G01
+        G02G03G04G05G06G07G08G09G10G11G12G13G14G15G16G17G18
+        G19G20G21G22G23G24G25G26G27G28G29G30G31G32J01J02J03
+        J07R01R02R03R04R05R06R07R08R10R11R12R13R14R15R16R17
+        R18R19R20R21R22R23R24  0  0  0  0  0  0  0  0  0  0
++        13 13 13 13 13  8  8  9  8  9  8  8  8  8  8  8  7
++         8  8  8  8  8  8  8  8  8  8  8  8  9  8  8  8  9
++         9  9  8  8  9  9  8  8 13  5  4  5  4  5  4  5  4
++         4  4  4  5  5  4  4  4  4  4  5  4  4  4  5  5  3
++         4  3  4  4  4  4  4  4  3  4  4  4  3  4  4  4  4
++         4  4  4  4  4  3  4  4  4  3  4  4  4  4  9  8  8
++        13  6  6  5  5  5 13  6  6 13  7  6  6  6  6  6  6
++         6  6  6  6  7 13  6  0  0  0  0  0  0  0  0  0  0
%c M  cc GPS ccc cccc cccc cccc cccc ccccc ccccc ccccc ccccc
%c cc cc ccc ccc cccc cccc cccc cccc ccccc ccccc ccccc ccccc
%f  0.0000000  0.000000000  0.00000000000  0.000000000000000
%f  0.0000000  0.000000000  0.00000000000  0.000000000000000
%i    0    0    0    0      0      0      0      0         0
%i    0    0    0    0      0      0      0      0         0
/* INFORMATION & ANALYSIS CENTER (IAC)            RAPID DATA
/* S/V CLOCKS ARE ALIGNED TO GNSS TIME                      
/* G:C1WC2W R:C1PC2P E:C1XC5X C:C2IC6I J:C1CC2S             
/* PCV:IGS14_2134 OL/AL:FES2004  NONE     YN ORB:CoN CLK:CoN
*  2021 02 03  7 30  0.00000000
PC01 -34386.052520  24448.043819    332.810220   -747.093543
PC02   4452.904821  41875.430918  -1109.984260    543.239287
PC03 -14687.321686  39485.792485  -1401.141133   -481.879480
PC04 -39665.823586  14351.744997    -83.729278   -308.417270
PC05  21924.668225  35980.588420  -1163.692177   -680.601637
PC06 -17176.641830  38233.120587    503.117758     58.665568
PC07  -7669.905592  28692.572692  30330.796841   -289.402539
PC08 -22387.011239  20175.242699 -29536.783318   -921.035060
PC09  -8144.282907  38609.154492  14496.855616    759.468225
PC10   4701.885703  34764.289084  23892.730513    -92.883107
PC11 -15254.496176  23384.219309   -580.777676   -930.249274
PC12 -19959.711491  11396.612858  15879.681131    772.243698
PC13  -5326.363169  23219.134616 -34702.174873    125.429603
PC14  -5756.354304  18765.826003 -19831.403980     48.508128
PC16 -16680.846044  38602.187843    683.950833   -681.814901
PC19  -2030.094607 -24245.083033  13680.221178    714.201779
PC20  11655.676334 -11474.511699  22621.397189   -912.292243
PC21 -18989.113738  -8773.440149 -18447.088686   -820.844979
PC22 -14901.245983 -23316.932293  -3506.144977   -866.166057
PC23  16474.473497  13690.355989  17879.054405   -877.308396
PC24 -22861.886710   8492.730759  13580.236737   -752.941744
PC25  -3456.963351  16013.792147  22585.173360   -920.083538
PC26 -27734.851611  -2397.944300  -2240.676902    953.858808
PC27  18353.468070  -1448.033286 -20991.126571    477.080831
PC28   6732.768974  16587.506375 -21401.647713   -114.037136
PC29   7808.114516 -25137.964802   9272.210191    347.294780
PC30  18592.097450 -18931.982668  -8681.141034    439.819196
PC32  19083.796390   8642.986296  18451.132305   -889.558976
PC33   2112.971157  24226.263028 -13695.341854   -947.243612
PC34 -18442.325356  19307.883809   8063.899702   -748.571644
PC35  -7111.146725 -16636.815619  21256.060912   -435.629213
PC36   4174.579490 -15878.027607 -22546.079180   -763.131345
PC37  27495.801997   3578.194073   3041.429162   -862.488504
PC38 -19556.767787  22906.510632 -29523.455491    127.770033
PC39 -13495.190565  39845.934675   1426.899048     28.086408
PC40    369.171770  31457.437735  28163.604790    127.748913
PC41  14889.043017  23368.404643   3312.256250   -931.178180
PC42 -12078.415049  10870.189118 -22646.333554   -841.531997
PC43  -8227.188143  25141.066817  -8848.373436   -580.912725
PC44 -18295.188277   1736.704017  20987.321615     19.452180
PC45 -16601.617866 -13532.025438 -17905.443897    352.222494
PC46  22195.031300  -8969.660590 -14305.254961    422.689641
PC60   7313.125759  41519.651739   -244.372990     -0.876661
PE01  25659.581459  14739.263242    279.124026  -1038.225203
PE02 -25713.270091 -14689.163500   -176.028181    195.690880
PE03 -14983.224693 -14637.157367 -20915.565459   -394.446358
PE04  16473.727776  -7555.095694  23404.490914   -702.041330
PE05  -4670.308096 -28585.243658  -6105.826994   -307.645327
PE07  -8262.145860  25716.210180 -12114.981369   -495.991475
PE08 -16235.885341   7992.557723 -23428.441556   6052.557295
PE09   7967.690352 -25830.574277  12045.868065   5777.884096
PE11  18011.983836 -20159.114275  12078.216982   6375.457222
PE12  26679.820700 -10619.384337  -7214.811613   5374.835171
PE13 -18271.505400  20102.590625 -11735.785774    411.415031
PE14   1122.072061  28883.355147 -10447.695665  -1316.918559
PE15 -26622.537086  10736.139959   7225.065532    831.154538
PE18   7786.041894 -24902.921783   -739.185773  -1439.483759
PE19  14058.891072  16913.226417  19809.296389    194.413029
PE21  12815.514380  20432.475896  17148.576496   -646.381020
PE24   8636.325614 -14148.600859 -24536.271804   -723.634838
PE25 -12665.112773 -20439.660633 -17267.901402   -525.653999
PE26   1549.407651  17460.877441 -23839.569055   2191.565315
PE27  -7935.391589  14485.049729  24564.583988     37.760236
PE30 -24279.963511   -661.992291  16923.481423   3211.457800
PE31  23868.183917    -73.586102 -17494.414542   -477.941901
PE33  19308.046987   4908.274297 -21882.195156   -465.383015
PE36   -810.288205 -17638.012858  23770.932438    445.674616
PG01   -209.753427  15376.433423 -21852.313139    768.606005
PG02  20604.572196 -14896.310225   8366.423378   -572.903740
PG03   9572.740932  20894.530226 -13481.349475    -73.033668
PG04   -604.767737  25410.570502   7615.272116   -177.542481
PG05   8610.771709 -12652.979115  21550.704253    -32.687072
PG06  25633.155326  -5252.896268  -4654.425431     -3.757408
PG07  15894.675876   9497.558142  19544.269265     45.258264
PG08  -4724.274772  25970.645102   -184.071757     -8.911843
PG09   8663.142271  18585.176963  16805.651572   -319.271916
PG10 -22283.618022  -9464.970682 -11119.193254    -53.311450
PG11  -6213.478933  22110.897364 -14095.595212    -35.166955
PG12  -4576.783865 -20621.468988 -16439.690986      4.112672
PG13  13236.109596 -21453.961672   8030.211901     92.972435
PG14  21806.071278  11456.934594  -9954.619931     93.637181
PG15   1576.696581 -26305.595797  -1024.916658   -171.975506
PG16 -10945.752139   9946.734543  21826.147484   -274.512283
PG17  14629.109038   1263.144432 -21699.448980    388.349700
PG18 -17961.086903  -7522.851539  18085.159983    345.342334
PG19  16267.630871  -6925.277212 -20073.284322    -43.466894
PG20 -21817.796562 -15365.362012   1076.262102    524.870035
PG21  -8809.847170  17020.399741 -17469.676904     92.367830
PG22   2053.465060  18621.891575 -18689.765255   -686.525149
PG23 -20821.984290 -16483.435094  -1167.225550    117.909179
PG24   4711.180363 -17504.152383 -19525.377071      2.840893
PG25 -16846.614804 -20047.874858  -5514.748204     72.857994
PG26 -18954.898598   1901.666562  18565.093504     39.397341
PG27 -12235.919612  20086.616399  11816.857391    -68.884730
PG28  20837.548138  10067.711719 -12298.022802    620.867552
PG29  -6312.919769 -19335.783409  17018.970654   -287.931703
PG30  23990.933450   1625.509466  11568.662164   -378.963189
PG31 -25966.557876   6404.584924  -2054.631572    -97.798202
PG32 -15464.828976    243.289604 -21483.442745     17.293620
PJ01 -19473.514918  25304.497889 -22970.345626   -338.977777
PJ02 -28605.527037  20428.070158  28160.335663      1.406629
PJ03 -32140.221372  26705.819291  11070.513582     -0.430272
PJ07 -25391.743851  33650.590728      0.532882      0.058065
PR01   8387.861139  -9023.915586  22333.072800     74.433675
PR02  -2761.902726 -23860.825098   8713.849963    465.487056
PR03 -10791.642794 -21417.268924  -8728.660760     30.240818
PR04 -12429.992744  -6954.018522 -21138.981274     72.589511
PR05  -7214.938992  11338.190039 -21666.920300     65.872585
PR06   3881.400927  23978.771279  -7755.975914    192.110513
PR07  10991.005299  20977.752837   9450.835601    -42.329824
PR08  12553.992172   6825.056716  21176.186292    -57.197835
PR10  17464.166533  11105.365905  14844.583275    -66.087427
PR11  25035.677946   4319.390243  -2316.902544      3.767346
PR12  17276.403444  -4858.730117 -18092.362167    201.924774
PR13   -266.303797 -11254.080432 -22910.288215    -50.188466
PR14 -18149.705660 -11123.455796 -14042.542903     60.577308
PR15 -24967.601709  -4489.510984   2727.277869    105.601359
PR16 -16602.716946   5750.164918  18523.654168    -10.884501
PR17  -4593.995712 -10294.466008  22893.152162    396.821458
PR18 -15911.316182   3927.567832  19546.119408     65.363135
PR19 -19389.159302  15273.774118   6445.544097   -130.505384
PR20 -10799.046993  18964.399301 -13153.385131   -432.540828
PR21   5385.690020   9425.896706 -23077.524233   -184.971363
PR22  16506.467229  -4961.604516 -18852.830099    -95.890013
PR23  17379.869263 -18648.491202    979.871664    363.604543
PR24   9828.422684 -19173.871180  13669.388472     30.137897
EOF
